STARLINK-36246          
1 67939U 26037H   26193.01495237  .00006294  00000+0  23804-3 0  9994
2 67939  43.0010 208.6988 0002332 254.4965 105.5629 15.27579859 22358
STARLINK-36907          
1 67940U 26037J   26193.06491777  .00013650  00000+0  50457-3 0  9994
2 67940  42.9953 208.1928 0000275 282.7053  77.3767 15.27584017 22361
STARLINK-36927          
1 67941U 26037K   26193.12388072  .00006980  00000+0  26284-3 0  9994
2 67941  42.9984 207.7801 0001557 264.6124  95.4550 15.27591832 22378
STARLINK-36914          
1 67942U 26037L   26192.42263135  .00013200  00000+0  48801-3 0  9991
2 67942  43.0005 211.9687 0002255 271.5330  88.5263 15.27601822 22269
STARLINK-36851          
1 67943U 26037M   26193.06877159  .00014011  00000+0  51756-3 0  9994
2 67943  42.9957 208.2271 0000538 268.6645  91.4145 15.27588688 22367
STARLINK-36892          
1 67944U 26037N   26193.06234762  .00014160  00000+0  52297-3 0  9998
2 67944  42.9965 208.1766 0000465 286.3468  73.7332 15.27587043 22369
STARLINK-36908          
1 67945U 26037P   26193.05463784  .00007323  00000+0  27533-3 0  9994
2 67945  42.9978 208.1139 0001562 270.3870  89.6803 15.27585367 22363
STARLINK-36909          
1 67946U 26037Q   26193.11616956  .00008090  00000+0  30311-3 0  9993
2 67946  42.9991 207.7064 0001464 275.0789  84.9896 15.27586482 22373
STARLINK-36920          
1 67947U 26037R   26193.04691984  .00014452  00000+0  53327-3 0  9991
2 67947  42.9988 208.0615 0001446 284.5448  75.5244 15.27604143 22360
STARLINK-36873          
1 67948U 26037S   26193.10976071  .00015590  00000+0  57513-3 0  9997
2 67948  43.0002 207.6749 0001982 276.2113  83.8513 15.27562603 22371
STARLINK-36863          
1 67949U 26037T   26193.10717462  .00007235  00000+0  27213-3 0  9996
2 67949  42.9999 207.6467 0001571 257.0596 103.0080 15.27585026 22376
STARLINK-36887          
1 67950U 26037U   26193.10346271  .00011880  00000+0  44081-3 0  9997
2 67950  43.0007 208.5054 0001481 276.3644  83.7039 15.27559742 22363
STARLINK-36897          
1 67951U 26037V   26193.03422361  .00015830  00000+0  58348-3 0  9995
2 67951  43.0001 208.8239 0001058 251.5975 108.4762 15.27584170 22358
STARLINK-36381          
1 67952U 26037W   26193.02653103  .00018346  00000+0  67398-3 0  9995
2 67952  43.0011 208.7704 0001914 296.5086  63.5569 15.27607096 22358
STARLINK-36824          
1 67953U 26037X   26193.09576070  .00003336  00000+0  13067-3 0  9997
2 67953  43.0011 208.4438 0001206 271.7243  88.3470 15.27581817 22363
STARLINK-36869          
1 67954U 26037Y   26193.08162319  .00005553  00000+0  21111-3 0  9996
2 67954  42.9992 208.3378 0000605 193.7085 166.3751 15.27586410 22364
STARLINK-36872          
1 67955U 26037Z   26193.07391103  .00006597  00000+0  24903-3 0  9992
2 67955  42.9959 208.2567 0000885 280.3834  79.6917 15.27579260 22367
STARLINK-36918          
1 67956U 26037AA  26193.07005704  .00014147  00000+0  52255-3 0  9993
2 67956  42.9960 208.2308 0000541 266.4827  93.5962 15.27584515 22363
STARLINK-36829          
1 67957U 26037AB  26193.01237635  .00011340  00000+0  42082-3 0  9997
2 67957  42.9982 208.6677 0001139 264.7032  95.3690 15.27591075 22349
STARLINK-36799          
1 67958U 26037AC  26193.06619999  .00007783  00000+0  29214-3 0  9998
2 67958  42.9964 208.1922 0000693 265.0304  95.0468 15.27569212 22368
STARLINK-36834          
1 67959U 26037AD  26193.05592646  .00007404  00000+0  27826-3 0  9994
2 67959  42.9981 208.1295 0001350 279.8575  80.2124 15.27582969 22364
STARLINK-36841          
1 67960U 26037AE  26193.12516541  .00006747  00000+0  25444-3 0  9997
2 67960  42.9980 207.7859 0001537 268.3606  91.7070 15.27581944 22371
STARLINK-36912          
1 67961U 26038A   26193.18503688  .00012020  00000+0  37407-3 0  9996
2 67961  97.2839 202.4602 0001429  90.6559 269.4848 15.33442594 22314
STARLINK-36881          
1 67962U 26038B   26192.98655122  .00018805  00000+0  58332-3 0  9992
2 67962  97.2847 202.2703 0001536  84.4898 275.6520 15.33446352 22288
STARLINK-36357          
1 67963U 26038C   26192.91585802  .00015707  00000+0  48774-3 0  9990
2 67963  97.2837 202.2128 0001939  80.0685 280.0776 15.33450867 22270
STARLINK-36349          
1 67964U 26038D   26192.98383236  .00011207  00000+0  34896-3 0  9996
2 67964  97.2832 202.2748 0001602  94.3828 265.7598 15.33444021 22286
STARLINK-36806          
1 67965U 26038E   26192.97838588  .00020929  00000+0  64944-3 0  9999
2 67965  97.2850 202.2813 0001717  87.0681 273.0758 15.33413651 22288
STARLINK-36820          
1 67966U 26038F   26192.97567537  .00012845  00000+0  39945-3 0  9994
2 67966  97.2824 202.2856 0002140  99.1489 260.9996 15.33448700 22280
STARLINK-36819          
1 67967U 26038G   26192.97295367  .00010494  00000+0  32713-3 0  9998
2 67967  97.2837 202.2865 0001669  92.6248 267.5186 15.33425302 22288
STARLINK-36812          
1 67968U 26038H   26192.57870647  .00014420  00000+0  44818-3 0  9997
2 67968  97.2821 201.9094 0001769  86.8272 273.3173 15.33439689 22223
