OBJECT_NAME,OBJECT_ID,EPOCH,MEAN_MOTION,ECCENTRICITY,INCLINATION,RA_OF_ASC_NODE,ARG_OF_PERICENTER,MEAN_ANOMALY,EPHEMERIS_TYPE,CLASSIFICATION_TYPE,NORAD_CAT_ID,ELEMENT_SET_NO,REV_AT_EPOCH,BSTAR,MEAN_MOTION_DOT,MEAN_MOTION_DDOT
STARLINK-36246,2026-037H,2026-07-12T00:21:31.884768,15.27579859,.0002332,43.0010,208.6988,254.4965,105.5629,0,U,67939,999,2235,.23803717E-3,.6294E-4,0
STARLINK-36907,2026-037J,2026-07-12T01:33:28.895328,15.27584017,.00002751,42.9953,208.1928,282.7053,77.3767,0,U,67940,999,2236,.50457162E-3,.1365E-3,0
STARLINK-36927,2026-037K,2026-07-12T02:58:23.294208,15.27591832,.00015577,42.9984,207.7801,264.6124,95.4550,0,U,67941,999,2237,.26284351E-3,.698E-4,0
STARLINK-36914,2026-037L,2026-07-11T10:08:35.348640,15.27601822,.00022559,43.0005,211.9687,271.5330,88.5263,0,U,67942,999,2226,.48800878E-3,.132E-3,0
STARLINK-36851,2026-037M,2026-07-12T01:39:01.865376,15.27588688,.00005387,42.9957,208.2271,268.6645,91.4145,0,U,67943,999,2236,.51756045E-3,.14011E-3,0
STARLINK-36892,2026-037N,2026-07-12T01:29:46.834368,15.27587043,.00004652,42.9965,208.1766,286.3468,73.7332,0,U,67944,999,2236,.52297345E-3,.1416E-3,0
STARLINK-36908,2026-037P,2026-07-12T01:18:40.709376,15.27585367,.00015627,42.9978,208.1139,270.3870,89.6803,0,U,67945,999,2236,.27533375E-3,.7323E-4,0
STARLINK-36909,2026-037Q,2026-07-12T02:47:17.049984,15.27586482,.00014647,42.9991,207.7064,275.0789,84.9896,0,U,67946,999,2237,.30310947E-3,.809E-4,0
STARLINK-36920,2026-037R,2026-07-12T01:07:33.874176,15.27604143,.0001446,42.9988,208.0615,284.5448,75.5244,0,U,67947,999,2236,.53327261E-3,.14452E-3,0
STARLINK-36873,2026-037S,2026-07-12T02:38:03.325344,15.27562603,.00019829,43.0002,207.6749,276.2113,83.8513,0,U,67948,999,2237,.57512962E-3,.1559E-3,0
STARLINK-36863,2026-037T,2026-07-12T02:34:19.887168,15.27585026,.00015713,42.9999,207.6467,257.0596,103.0080,0,U,67949,999,2237,.27212642E-3,.7235E-4,0
STARLINK-36887,2026-037U,2026-07-12T02:28:59.178144,15.27559742,.00014815,43.0007,208.5054,276.3644,83.7039,0,U,67950,999,2236,.44081311E-3,.1188E-3,0
STARLINK-36897,2026-037V,2026-07-12T00:49:16.919904,15.27584170,.00010583,43.0001,208.8239,251.5975,108.4762,0,U,67951,999,2235,.58347714E-3,.1583E-3,0
STARLINK-36381,2026-037W,2026-07-12T00:38:12.280992,15.27607096,.00019146,43.0011,208.7704,296.5086,63.5569,0,U,67952,999,2235,.67398107E-3,.18346E-3,0
STARLINK-36824,2026-037X,2026-07-12T02:17:53.724480,15.27581817,.00012069,43.0011,208.4438,271.7243,88.3470,0,U,67953,999,2236,.13067099E-3,.3336E-4,0
STARLINK-36869,2026-037Y,2026-07-12T01:57:32.243616,15.27586410,.00006059,42.9992,208.3378,193.7085,166.3751,0,U,67954,999,2236,.21110856E-3,.5553E-4,0
STARLINK-36872,2026-037Z,2026-07-12T01:46:25.912992,15.27579260,.00008857,42.9959,208.2567,280.3834,79.6917,0,U,67955,999,2236,.24903062E-3,.6597E-4,0
STARLINK-36918,2026-037AA,2026-07-12T01:40:52.928256,15.27584515,.00005417,42.9960,208.2308,266.4827,93.5962,0,U,67956,999,2236,.52254757E-3,.14147E-3,0
STARLINK-36829,2026-037AB,2026-07-12T00:17:49.316640,15.27591075,.00011395,42.9982,208.6677,264.7032,95.3690,0,U,67957,999,2234,.42081527E-3,.1134E-3,0
STARLINK-36799,2026-037AC,2026-07-12T01:35:19.679136,15.27569212,.00006939,42.9964,208.1922,265.0304,95.0468,0,U,67958,999,2236,.29214358E-3,.7783E-4,0
STARLINK-36834,2026-037AD,2026-07-12T01:20:32.046144,15.27582969,.00013506,42.9981,208.1295,279.8575,80.2124,0,U,67959,999,2236,.27826215E-3,.7404E-4,0
STARLINK-36841,2026-037AE,2026-07-12T03:00:14.291424,15.27581944,.00015376,42.9980,207.7859,268.3606,91.7070,0,U,67960,999,2237,.25444377E-3,.6747E-4,0
STARLINK-36912,2026-038A,2026-07-12T04:26:27.186432,15.33442594,.00014291,97.2839,202.4602,90.6559,269.4848,0,U,67961,999,2231,.37406636E-3,.1202E-3,0
STARLINK-36881,2026-038B,2026-07-11T23:40:38.025408,15.33446352,.00015367,97.2847,202.2703,84.4898,275.6520,0,U,67962,999,2228,.58331606E-3,.18805E-3,0
STARLINK-36357,2026-038C,2026-07-11T21:58:50.132928,15.33450867,.0001939,97.2837,202.2128,80.0685,280.0776,0,U,67963,999,2227,.48774E-3,.15707E-3,0
STARLINK-36349,2026-038D,2026-07-11T23:36:43.115904,15.33444021,.0001602,97.2832,202.2748,94.3828,265.7598,0,U,67964,999,2228,.34896029E-3,.11207E-3,0
STARLINK-36806,2026-038E,2026-07-11T23:28:52.540032,15.33413651,.00017179,97.2850,202.2813,87.0681,273.0758,0,U,67965,999,2228,.64944389E-3,.20929E-3,0
STARLINK-36820,2026-038F,2026-07-11T23:24:58.351968,15.33448700,.000214,97.2824,202.2856,99.1489,260.9996,0,U,67966,999,2228,.39945E-3,.12845E-3,0
STARLINK-36819,2026-038G,2026-07-11T23:21:03.197088,15.33425302,.0001669,97.2837,202.2865,92.6248,267.5186,0,U,67967,999,2228,.32713E-3,.10494E-3,0
STARLINK-36812,2026-038H,2026-07-11T13:53:20.239008,15.33439689,.00017694,97.2821,201.9094,86.8272,273.3173,0,U,67968,999,2222,.44818372E-3,.1442E-3,0
